[
    {
        "Altitude(m)": 702857.793145289,
        "Argument of Periapsis(deg)": 0.009112096949301655,
        "Eccentricity": 0.0,
        "Inclination(deg)": 45.0,
        "Latitude(deg)": 17.83436951342002,
        "Longitude(deg)": 23.049749946472385,
        "Mean Anomaly(deg)": 25.59017331798464,
        "RAAN(deg)": 104.99139844683346,
        "Satellite Name": "Constellation 1 463",
        "Satellite Number": 463,
        "Semi-Major Axis(m)": 7083131.272910544,
        "Time(s)": 152
    },
    {
        "Altitude(m)": 702860.3123852544,
        "Argument of Periapsis(deg)": 0.009172044955547059,
        "Eccentricity": 0.0,
        "Inclination(deg)": 45.0,
        "Latitude(deg)": 17.875285746111846,
        "Longitude(deg)": 23.092933787229935,
        "Mean Anomaly(deg)": 25.650874458234565,
        "RAAN(deg)": 104.99134185766788,
        "Satellite Name": "Constellation 1 463",
        "Satellite Number": 463,
        "Semi-Major Axis(m)": 7083131.272910544,
        "Time(s)": 153
    },
    {
        "Altitude(m)": 702862.8471275779,
        "Argument of Periapsis(deg)": 0.009231992961792466,
        "Eccentricity": 0.0,
        "Inclination(deg)": 45.0,
        "Latitude(deg)": 17.916190354577918,
        "Longitude(deg)": 23.136139293224552,
        "Mean Anomaly(deg)": 25.711575598484437,
        "RAAN(deg)": 104.99128526850231,
        "Satellite Name": "Constellation 1 463",
        "Satellite Number": 463,
        "Semi-Major Axis(m)": 7083131.272910544,
        "Time(s)": 154
    },
    {
        "Altitude(m)": 702865.3973436496,
        "Argument of Periapsis(deg)": 0.009291940968037872,
        "Eccentricity": 0.0,
        "Inclination(deg)": 45.0,
        "Latitude(deg)": 17.9570833052178,
        "Longitude(deg)": 23.17936652109817,
        "Mean Anomaly(deg)": 25.77227673873435,
        "RAAN(deg)": 104.99122867933673,
        "Satellite Name": "Constellation 1 463",
        "Satellite Number": 463,
        "Semi-Major Axis(m)": 7083131.272910544,
        "Time(s)": 155
    },
    {
        "Altitude(m)": 702867.9630047948,
        "Argument of Periapsis(deg)": 0.009351888974283276,
        "Eccentricity": 0.0,
        "Inclination(deg)": 45.0,
        "Latitude(deg)": 17.99796456438794,
        "Longitude(deg)": 23.222615359426385,
        "Mean Anomaly(deg)": 25.832977878984273,
        "RAAN(deg)": 104.99117209017116,
        "Satellite Name": "Constellation 1 463",
        "Satellite Number": 463,
        "Semi-Major Axis(m)": 7083131.272910544,
        "Time(s)": 156
    },
    {
        "Altitude(m)": 702870.5440822834,
        "Argument of Periapsis(deg)": 0.00941183698052868,
        "Eccentricity": 0.0,
        "Inclination(deg)": 45.0,
        "Latitude(deg)": 18.038834098402802,
        "Longitude(deg)": 23.265886201106618,
        "Mean Anomaly(deg)": 25.893679019234145,
        "RAAN(deg)": 104.99111550100558,
        "Satellite Name": "Constellation 1 463",
        "Satellite Number": 463,
        "Semi-Major Axis(m)": 7083131.272910544,
        "Time(s)": 157
    },
    {
        "Altitude(m)": 702873.1405473145,
        "Argument of Periapsis(deg)": 0.009471784986774088,
        "Eccentricity": 0.0,
        "Inclination(deg)": 45.0,
        "Latitude(deg)": 18.07969187353304,
        "Longitude(deg)": 23.309178934775858,
        "Mean Anomaly(deg)": 25.95438015948405,
        "RAAN(deg)": 104.99105891184001,
        "Satellite Name": "Constellation 1 463",
        "Satellite Number": 463,
        "Semi-Major Axis(m)": 7083131.272910544,
        "Time(s)": 158
    },
    {
        "Altitude(m)": 702875.75237104,
        "Argument of Periapsis(deg)": 0.009531732993019492,
        "Eccentricity": 0.0,
        "Inclination(deg)": 45.0,
        "Latitude(deg)": 18.12053785600648,
        "Longitude(deg)": 23.352493617198824,
        "Mean Anomaly(deg)": 26.015081299733936,
        "RAAN(deg)": 104.99100232267446,
        "Satellite Name": "Constellation 1 463",
        "Satellite Number": 463,
        "Semi-Major Axis(m)": 7083131.272910544,
        "Time(s)": 159
    },
    {
        "Altitude(m)": 702878.379524542,
        "Argument of Periapsis(deg)": 0.009591680999264898,
        "Eccentricity": 0.0,
        "Inclination(deg)": 45.0,
        "Latitude(deg)": 18.161372012007735,
        "Longitude(deg)": 23.395830305170723,
        "Mean Anomaly(deg)": 26.075782439983858,
        "RAAN(deg)": 104.99094573350888,
        "Satellite Name": "Constellation 1 463",
        "Satellite Number": 463,
        "Semi-Major Axis(m)": 7083131.272910544,
        "Time(s)": 160
    },
    {
        "Altitude(m)": 702881.0219788456,
        "Argument of Periapsis(deg)": 0.009651629005510304,
        "Eccentricity": 0.0,
        "Inclination(deg)": 45.0,
        "Latitude(deg)": 18.202194307678035,
        "Longitude(deg)": 23.439189055517435,
        "Mean Anomaly(deg)": 26.13648358023373,
        "RAAN(deg)": 104.99088914434331,
        "Satellite Name": "Constellation 1 463",
        "Satellite Number": 463,
        "Semi-Major Axis(m)": 7083131.272910544,
        "Time(s)": 161
    },
    {
        "Altitude(m)": 702883.6797049111,
        "Argument of Periapsis(deg)": 0.00971157701175571,
        "Eccentricity": 0.0,
        "Inclination(deg)": 45.0,
        "Latitude(deg)": 18.243004709115297,
        "Longitude(deg)": 23.482569925095454,
        "Mean Anomaly(deg)": 26.19718472048366,
        "RAAN(deg)": 104.99083255517775,
        "Satellite Name": "Constellation 1 463",
        "Satellite Number": 463,
        "Semi-Major Axis(m)": 7083131.272910544,
        "Time(s)": 162
    },
    {
        "Altitude(m)": 702886.3526736452,
        "Argument of Periapsis(deg)": 0.009771525018001118,
        "Eccentricity": 0.0,
        "Inclination(deg)": 45.0,
        "Latitude(deg)": 18.28380318237345,
        "Longitude(deg)": 23.52597280269454,
        "Mean Anomaly(deg)": 26.25788586073354,
        "RAAN(deg)": 104.99077596601218,
        "Satellite Name": "Constellation 1 463",
        "Satellite Number": 463,
        "Semi-Major Axis(m)": 7083131.272910544,
        "Time(s)": 163
    },
    {
        "Altitude(m)": 702889.0408558961,
        "Argument of Periapsis(deg)": 0.00983147302424652,
        "Eccentricity": 0.0,
        "Inclination(deg)": 45.0,
        "Latitude(deg)": 18.32458969346374,
        "Longitude(deg)": 23.569398081426392,
        "Mean Anomaly(deg)": 26.31858700098344,
        "RAAN(deg)": 104.99071937684661,
        "Satellite Name": "Constellation 1 463",
        "Satellite Number": 463,
        "Semi-Major Axis(m)": 7083131.272910544,
        "Time(s)": 164
    },
    {
        "Altitude(m)": 702891.7442224469,
        "Argument of Periapsis(deg)": 0.009891421030491928,
        "Eccentricity": 0.0,
        "Inclination(deg)": 45.0,
        "Latitude(deg)": 18.365364208352677,
        "Longitude(deg)": 23.61284565014176,
        "Mean Anomaly(deg)": 26.379288141233367,
        "RAAN(deg)": 104.99066278768105,
        "Satellite Name": "Constellation 1 463",
        "Satellite Number": 463,
        "Semi-Major Axis(m)": 7083131.272910544,
        "Time(s)": 165
    },
    {
        "Altitude(m)": 702894.462744014,
        "Argument of Periapsis(deg)": 0.009951369036737332,
        "Eccentricity": 0.0,
        "Inclination(deg)": 45.0,
        "Latitude(deg)": 18.40612669296318,
        "Longitude(deg)": 23.656315565818986,
        "Mean Anomaly(deg)": 26.439989281483243,
        "RAAN(deg)": 104.99060619851547,
        "Satellite Name": "Constellation 1 463",
        "Satellite Number": 463,
        "Semi-Major Axis(m)": 7083131.272910544,
        "Time(s)": 166
    },
    {
        "Altitude(m)": 702897.1963912747,
        "Argument of Periapsis(deg)": 0.010011317042982738,
        "Eccentricity": 0.0,
        "Inclination(deg)": 45.0,
        "Latitude(deg)": 18.446877113174143,
        "Longitude(deg)": 23.699807885466825,
        "Mean Anomaly(deg)": 26.50069042173315,
        "RAAN(deg)": 104.99054960934991,
        "Satellite Name": "Constellation 1 463",
        "Satellite Number": 463,
        "Semi-Major Axis(m)": 7083131.272910544,
        "Time(s)": 167
    },
    {
        "Altitude(m)": 702899.9451348266,
        "Argument of Periapsis(deg)": 0.010071265049228144,
        "Eccentricity": 0.0,
        "Inclination(deg)": 45.0,
        "Latitude(deg)": 18.487615434820363,
        "Longitude(deg)": 23.743322666124353,
        "Mean Anomaly(deg)": 26.56139156198303,
        "RAAN(deg)": 104.99049302018435,
        "Satellite Name": "Constellation 1 463",
        "Satellite Number": 463,
        "Semi-Major Axis(m)": 7083131.272910544,
        "Time(s)": 168
    },
    {
        "Altitude(m)": 702902.7089452241,
        "Argument of Periapsis(deg)": 0.01013121305547355,
        "Eccentricity": 0.0,
        "Inclination(deg)": 45.0,
        "Latitude(deg)": 18.52834162369237,
        "Longitude(deg)": 23.78685996486098,
        "Mean Anomaly(deg)": 26.62209270223295,
        "RAAN(deg)": 104.99043643101876,
        "Satellite Name": "Constellation 1 463",
        "Satellite Number": 463,
        "Semi-Major Axis(m)": 7083131.272910544,
        "Time(s)": 169
    },
    {
        "Altitude(m)": 702905.487792949,
        "Argument of Periapsis(deg)": 0.010191161061718957,
        "Eccentricity": 0.0,
        "Inclination(deg)": 45.0,
        "Latitude(deg)": 18.569055645536288,
        "Longitude(deg)": 23.830419838776344,
        "Mean Anomaly(deg)": 26.682793842482823,
        "RAAN(deg)": 104.9903798418532,
        "Satellite Name": "Constellation 1 463",
        "Satellite Number": 463,
        "Semi-Major Axis(m)": 7083131.272910544,
        "Time(s)": 170
    }
]